start=new Date('2022-05-06T00:00:00.000Z').valueOf();
sats=[{"RCS_SIZE":"LARGE","PERIAPSIS":"545.954","COUNTRY_CODE":"US","ARG_OF_PERICENTER":"53.6434","INCLINATION":"53.0548","REF_FRAME":"TEME","OBJECT_NAME":"STARLINK-1539","DECAY_DATE":null,"OBJECT_TYPE":"PAYLOAD","PERIOD":"95.592","MEAN_MOTION_DOT":"0.00004311","FILE":"3430750","LAUNCH_DATE":"2020-08-07","OBJECT_ID":"2020-055AX","MEAN_ANOMALY":"306.4719","RA_OF_ASC_NODE":"278.8141","REV_AT_EPOCH":"9770","SITE":"AFETR","ECCENTRICITY":"0.00017760","NORAD_CAT_ID":"46072","EPOCH":"2022-05-05T19:50:07.732032","MEAN_MOTION_DDOT":"0.0000000000000","TIME_SYSTEM":"UTC","CLASSIFICATION_TYPE":"U","TLE_LINE2":"2 46072  53.0548 278.8141 0001776  53.6434 306.4719 15.06409518 97705","EPHEMERIS_TYPE":"0","APOAPSIS":"548.414","TLE_LINE1":"1 46072U 20055AX  22125.82647838  .00004311  00000-0  30803-3 0  9995","ELEMENT_SET_NO":"999","GP_ID":"202801500","SEMIMAJOR_AXIS":"6925.319","BSTAR":"0.00030803000000","MEAN_MOTION":"15.06409518","CENTER_NAME":"EARTH","MEAN_ELEMENT_THEORY":"SGP4"},{"CLASSIFICATION_TYPE":"U","TLE_LINE2":"2 46073  53.0534 279.3404 0001807  61.3289 298.7881 15.06408345 97696","TIME_SYSTEM":"UTC","EPOCH":"2022-05-05T17:01:38.527680","MEAN_MOTION_DDOT":"0.0000000000000","NORAD_CAT_ID":"46073","ECCENTRICITY":"0.00018070","RA_OF_ASC_NODE":"279.3404","SITE":"AFETR","REV_AT_EPOCH":"9769","MEAN_ANOMALY":"298.7881","MEAN_ELEMENT_THEORY":"SGP4","CENTER_NAME":"EARTH","MEAN_MOTION":"15.06408345","BSTAR":"-0.00001816000000","GP_ID":"202802240","SEMIMAJOR_AXIS":"6925.323","APOAPSIS":"548.439","EPHEMERIS_TYPE":"0","TLE_LINE1":"1 46073U 20055AY  22125.70947370 -.00000552  00000-0 -18160-4 0  9995","ELEMENT_SET_NO":"999","OBJECT_TYPE":"PAYLOAD","PERIOD":"95.592","DECAY_DATE":null,"OBJECT_NAME":"STARLINK-1542","INCLINATION":"53.0534","REF_FRAME":"TEME","ARG_OF_PERICENTER":"61.3289","PERIAPSIS":"545.937","RCS_SIZE":"LARGE","COUNTRY_CODE":"US","OBJECT_ID":"2020-055AY","LAUNCH_DATE":"2020-08-07","FILE":"3430750","MEAN_MOTION_DOT":"-0.00000552"},{"TIME_SYSTEM":"UTC","TLE_LINE2":"2 46074  53.0553 278.7951 0001748  54.4915 305.6237 15.06420539 97705","CLASSIFICATION_TYPE":"U","MEAN_ANOMALY":"305.6237","RA_OF_ASC_NODE":"278.7951","SITE":"AFETR","REV_AT_EPOCH":"9770","ECCENTRICITY":"0.00017480","NORAD_CAT_ID":"46074","EPOCH":"2022-05-05T19:51:27.733248","MEAN_MOTION_DDOT":"0.0000000000000","BSTAR":"0.00021325000000","MEAN_MOTION":"15.06420539","CENTER_NAME":"EARTH","MEAN_ELEMENT_THEORY":"SGP4","APOAPSIS":"548.361","EPHEMERIS_TYPE":"0","TLE_LINE1":"1 46074U 20055AZ  22125.82740432  .00002898  00000-0  21325-3 0  9998","ELEMENT_SET_NO":"999","GP_ID":"202800997","SEMIMAJOR_AXIS":"6925.286","DECAY_DATE":null,"PERIOD":"95.591","OBJECT_TYPE":"PAYLOAD","PERIAPSIS":"545.940","RCS_SIZE":"LARGE","COUNTRY_CODE":"US","ARG_OF_PERICENTER":"54.4915","INCLINATION":"53.0553","REF_FRAME":"TEME","OBJECT_NAME":"STARLINK-1549","OBJECT_ID":"2020-055AZ","FILE":"3430750","MEAN_MOTION_DOT":"0.00002898","LAUNCH_DATE":"2020-08-07"},{"NORAD_CAT_ID":"46075","ECCENTRICITY":"0.00014160","MEAN_MOTION_DDOT":"0.0000000000000","EPOCH":"2022-05-05T20:28:38.814528","MEAN_ANOMALY":"304.6025","REV_AT_EPOCH":"9771","SITE":"AFETR","RA_OF_ASC_NODE":"278.6759","TIME_SYSTEM":"UTC","CLASSIFICATION_TYPE":"U","TLE_LINE2":"2 46075  53.0532 278.6759 0001416  55.5097 304.6025 15.06399315 97715","SEMIMAJOR_AXIS":"6925.351","GP_ID":"202800749","ELEMENT_SET_NO":"999","TLE_LINE1":"1 46075U 20055BA  22125.85322702  .00000548  00000-0  55713-4 0  9997","EPHEMERIS_TYPE":"0","APOAPSIS":"548.196","CENTER_NAME":"EARTH","MEAN_ELEMENT_THEORY":"SGP4","BSTAR":"0.00005571300000","MEAN_MOTION":"15.06399315","REF_FRAME":"TEME","INCLINATION":"53.0532","OBJECT_NAME":"STARLINK-1551","COUNTRY_CODE":"US","PERIAPSIS":"546.235","RCS_SIZE":"LARGE","ARG_OF_PERICENTER":"55.5097","PERIOD":"95.592","OBJECT_TYPE":"PAYLOAD","DECAY_DATE":null,"LAUNCH_DATE":"2020-08-07","FILE":"3430750","MEAN_MOTION_DOT":"0.00000548","OBJECT_ID":"2020-055BA"},{"MEAN_MOTION":"15.06383764","BSTAR":"0.00003428100000","MEAN_ELEMENT_THEORY":"SGP4","CENTER_NAME":"EARTH","ELEMENT_SET_NO":"999","TLE_LINE1":"1 46076U 20055BB  22125.68000098  .00000229  00000-0  34281-4 0  9993","APOAPSIS":"548.608","EPHEMERIS_TYPE":"0","SEMIMAJOR_AXIS":"6925.398","GP_ID":"202801999","TLE_LINE2":"2 46076  53.0553 279.4697 0001942  53.0446 307.0721 15.06383764 97670","CLASSIFICATION_TYPE":"U","TIME_SYSTEM":"UTC","REV_AT_EPOCH":"9767","SITE":"AFETR","RA_OF_ASC_NODE":"279.4697","MEAN_ANOMALY":"307.0721","MEAN_MOTION_DDOT":"0.0000000000000","EPOCH":"2022-05-05T16:19:12.084672","ECCENTRICITY":"0.00019420","NORAD_CAT_ID":"46076","OBJECT_ID":"2020-055BB","MEAN_MOTION_DOT":"0.00000229","FILE":"3430750","LAUNCH_DATE":"2020-08-07","DECAY_DATE":null,"PERIOD":"95.593","OBJECT_TYPE":"PAYLOAD","ARG_OF_PERICENTER":"53.0446","COUNTRY_CODE":"US","RCS_SIZE":"LARGE","PERIAPSIS":"545.918","OBJECT_NAME":"STARLINK-1552","REF_FRAME":"TEME","INCLINATION":"53.0553"},{"OBJECT_ID":"2020-055BC","MEAN_MOTION_DOT":"-0.00001649","FILE":"3430750","LAUNCH_DATE":"2020-08-07","OBJECT_TYPE":"PAYLOAD","PERIOD":"95.591","DECAY_DATE":null,"OBJECT_NAME":"STARLINK-1559","REF_FRAME":"TEME","INCLINATION":"53.0563","ARG_OF_PERICENTER":"59.3827","COUNTRY_CODE":"US","PERIAPSIS":"546.103","RCS_SIZE":"LARGE","MEAN_ELEMENT_THEORY":"SGP4","CENTER_NAME":"EARTH","MEAN_MOTION":"15.06413490","BSTAR":"-0.00009176300000","GP_ID":"202801742","SEMIMAJOR_AXIS":"6925.307","ELEMENT_SET_NO":"999","TLE_LINE1":"1 46077U 20055BC  22125.72789834 -.00001649  00000-0 -91763-4 0  9998","EPHEMERIS_TYPE":"0","APOAPSIS":"548.241","CLASSIFICATION_TYPE":"U","TLE_LINE2":"2 46077  53.0563 279.2463 0001544  59.3827 300.7314 15.06413490 97657","TIME_SYSTEM":"UTC","MEAN_MOTION_DDOT":"0.0000000000000","EPOCH":"2022-05-05T17:28:10.416576","ECCENTRICITY":"0.00015440","NORAD_CAT_ID":"46077","REV_AT_EPOCH":"9765","SITE":"AFETR","RA_OF_ASC_NODE":"279.2463","MEAN_ANOMALY":"300.7314"},{"CLASSIFICATION_TYPE":"U","TLE_LINE2":"2 46078  53.0545 279.0600 0001698  59.8934 300.2223 15.06396385 97672","TIME_SYSTEM":"UTC","RA_OF_ASC_NODE":"279.0600","SITE":"AFETR","REV_AT_EPOCH":"9767","MEAN_ANOMALY":"300.2223","EPOCH":"2022-05-05T18:31:52.978080","MEAN_MOTION_DDOT":"0.0000000000000","NORAD_CAT_ID":"46078","ECCENTRICITY":"0.00016980","MEAN_MOTION":"15.06396385","BSTAR":"0.00002888000000","MEAN_ELEMENT_THEORY":"SGP4","CENTER_NAME":"EARTH","EPHEMERIS_TYPE":"0","APOAPSIS":"548.401","TLE_LINE1":"1 46078U 20055BD  22125.77214095  .00000149  00000-0  28880-4 0  9998","ELEMENT_SET_NO":"999","GP_ID":"202800499","SEMIMAJOR_AXIS":"6925.360","DECAY_DATE":null,"OBJECT_TYPE":"PAYLOAD","PERIOD":"95.592","ARG_OF_PERICENTER":"59.8934","RCS_SIZE":"LARGE","PERIAPSIS":"546.049","COUNTRY_CODE":"US","OBJECT_NAME":"STARLINK-1563","INCLINATION":"53.0545","REF_FRAME":"TEME","OBJECT_ID":"2020-055BD","MEAN_MOTION_DOT":"0.00000149","FILE":"3430750","LAUNCH_DATE":"2020-08-07"},{"LAUNCH_DATE":"2020-08-07","FILE":"3430513","MEAN_MOTION_DOT":"0.00000702","OBJECT_ID":"2020-055BE","ARG_OF_PERICENTER":"81.3234","PERIAPSIS":"546.142","RCS_SIZE":"LARGE","COUNTRY_CODE":"US","OBJECT_NAME":"STARLINK-1566","INCLINATION":"53.0546","REF_FRAME":"TEME","DECAY_DATE":null,"PERIOD":"95.592","OBJECT_TYPE":"PAYLOAD","APOAPSIS":"548.239","EPHEMERIS_TYPE":"0","TLE_LINE1":"1 46079U 20055BE  22125.76476619  .00000702  00000-0  65998-4 0  9996","ELEMENT_SET_NO":"999","GP_ID":"202776560","SEMIMAJOR_AXIS":"6925.325","MEAN_MOTION":"15.06407578","BSTAR":"0.00006599800000","MEAN_ELEMENT_THEORY":"SGP4","CENTER_NAME":"EARTH","RA_OF_ASC_NODE":"279.0800","REV_AT_EPOCH":"9717","SITE":"AFETR","MEAN_ANOMALY":"278.7926","EPOCH":"2022-05-05T18:21:15.798816","MEAN_MOTION_DDOT":"0.0000000000000","ECCENTRICITY":"0.00015140","NORAD_CAT_ID":"46079","CLASSIFICATION_TYPE":"U","TLE_LINE2":"2 46079  53.0546 279.0800 0001514  81.3234 278.7926 15.06407578 97177","TIME_SYSTEM":"UTC"},{"GP_ID":"202801501","SEMIMAJOR_AXIS":"6925.341","ELEMENT_SET_NO":"999","TLE_LINE1":"1 46080U 20055BF  22125.85690938 -.00000714  00000-0 -29055-4 0  9999","EPHEMERIS_TYPE":"0","APOAPSIS":"548.121","CENTER_NAME":"EARTH","MEAN_ELEMENT_THEORY":"SGP4","BSTAR":"-0.00002905500000","MEAN_MOTION":"15.06402531","ECCENTRICITY":"0.00013220","NORAD_CAT_ID":"46080","MEAN_MOTION_DDOT":"0.0000000000000","EPOCH":"2022-05-05T20:33:56.970432","MEAN_ANOMALY":"285.2305","REV_AT_EPOCH":"9769","SITE":"AFETR","RA_OF_ASC_NODE":"278.6555","TIME_SYSTEM":"UTC","TLE_LINE2":"2 46080  53.0541 278.6555 0001322  74.8830 285.2305 15.06402531 97697","CLASSIFICATION_TYPE":"U","LAUNCH_DATE":"2020-08-07","FILE":"3430750","MEAN_MOTION_DOT":"-0.00000714","OBJECT_ID":"2020-055BF","REF_FRAME":"TEME","INCLINATION":"53.0541","OBJECT_NAME":"STARLINK-1568","COUNTRY_CODE":"US","PERIAPSIS":"546.290","RCS_SIZE":"LARGE","ARG_OF_PERICENTER":"74.8830","OBJECT_TYPE":"PAYLOAD","PERIOD":"95.592","DECAY_DATE":null},{"MEAN_ANOMALY":"276.2670","RA_OF_ASC_NODE":"279.4064","REV_AT_EPOCH":"9768","SITE":"AFETR","ECCENTRICITY":"0.00011790","NORAD_CAT_ID":"46081","EPOCH":"2022-05-05T16:35:05.912160","MEAN_MOTION_DDOT":"0.0000000000000","TIME_SYSTEM":"UTC","TLE_LINE2":"2 46081  53.0565 279.4064 0001179  83.8453 276.2670 15.06403813 97687","CLASSIFICATION_TYPE":"U","APOAPSIS":"548.018","EPHEMERIS_TYPE":"0","ELEMENT_SET_NO":"999","TLE_LINE1":"1 46081U 20055BG  22125.69104065  .00001040  00000-0  88657-4 0  9997","GP_ID":"202802241","SEMIMAJOR_AXIS":"6925.337","BSTAR":"0.00008865700000","MEAN_MOTION":"15.06403813","CENTER_NAME":"EARTH","MEAN_ELEMENT_THEORY":"SGP4","RCS_SIZE":"LARGE","PERIAPSIS":"546.385","COUNTRY_CODE":"US","ARG_OF_PERICENTER":"83.8453","INCLINATION":"53.0565","REF_FRAME":"TEME","OBJECT_NAME":"STARLINK-1571","DECAY_DATE":null,"OBJECT_TYPE":"PAYLOAD","PERIOD":"95.592","MEAN_MOTION_DOT":"0.00001040","FILE":"3430750","LAUNCH_DATE":"2020-08-07","OBJECT_ID":"2020-055BG"}];
